#aV2015  4 28  0  0  0.00000000     288 DD+AD WGS84 FIT  NGA
## 1842 172800.00000000   300.00000000 57140 0.0000000000000
+   31     1  2  3  4  5  6  7  9 10 11 12 13 14 15 16 17 18
+         19 20 21 22 23 24 25 26 27 28 29 30 31 32  0  0  0
+          0  0  0  0  0  0  0  0  0  0  0  0  0  0  0  0  0
+          0  0  0  0  0  0  0  0  0  0  0  0  0  0  0  0  0
+          0  0  0  0  0  0  0  0  0  0  0  0  0  0  0  0  0
++         2  2  2  2  2  2  2  2  2  2  2  2  2  2  2  2  2
++         2  2  2  2  2  2  2  2  2  2  2  2  2  2  0  0  0
++         0  0  0  0  0  0  0  0  0  0  0  0  0  0  0  0  0
++         0  0  0  0  0  0  0  0  0  0  0  0  0  0  0  0  0
++         0  0  0  0  0  0  0  0  0  0  0  0  0  0  0  0  0
%c cc cc ccc ccc cccc cccc cccc cccc ccccc ccccc ccccc ccccc
%c cc cc ccc ccc cccc cccc cccc cccc ccccc ccccc ccccc ccccc
%f  0.0000000  0.000000000  0.00000000000  0.000000000000000
%f  0.0000000  0.000000000  0.00000000000  0.000000000000000
%i    0    0    0    0      0      0      0      0         0
%i    0    0    0    0      0      0      0      0         0
/*      NGA, ST. LOUIS,MO.                                  
/*   EPHEMERIS COMPUTED FROM  1 DAYS OF DATA                
/*   EPOCHA SMOOTHER                                       
/* CCCCCCCCCCCCCCCCCCCCCCCCCCCCCCCCCCCCCCCCCCCCCCCCCCCCCCCCC
*  2015  4 28 16  0  0.00000000
P  1 -22845.024983 -13223.674518   3702.854745     -6.234502                    
V  1  -2331.982001  -4873.818305 -31194.432679      0.004506                    
P  2   9967.860813  19908.833814  15182.337697    562.563932                    
V  2 -16566.492360  -8511.821995  22131.691489      0.023380                    
P  3 -13726.208485  -9335.353065  20737.947911    311.438541                    
V  3   3310.394906 -26122.837943  -9612.891750      0.119424                    
P  4 -18883.755386 -18072.883816  -5779.303335    -12.804070                    
V  4   7444.178447   1350.229840 -29962.863903     -0.013323                    
P  5   4276.967213  24590.948443  -8850.881343   -248.159975                    
V  5  -4066.892299  10939.932974  28773.358398      0.047228                    
P  6  -5722.384673  14388.577692  21582.438590    147.372027                    
V  6 -22605.837153 -15480.758228   4319.284320      0.095711                    
P  7 -21486.408316  -2784.029110 -15510.216834    458.507369                    
V  7 -14848.954907 -13050.690616  22407.027683      0.026166                    
P  9 -24871.222918   6041.077255   7121.873914   -146.271536                    
V  9   7053.567610  -6305.105098  29927.369414     -0.073513                    
P 10  -9428.780725  22413.760318   9778.401178   -172.710252                    
V 10  -2124.841070 -13426.823573  28067.305890     -0.015366                    
P 11 -23198.956876 -11753.640516  -6254.677306   -574.561645                    
V 11   8307.786148  -2354.467666 -28696.820401     -0.025859                    
P 12  11422.217977  13178.188062  20007.856103    288.537193                    
V 12  -4241.024927  25126.561178 -13845.147546      0.031330                    
P 13   2591.518987  14875.455632 -22004.095435   -109.730395                    
V 13 -26176.518568   8547.914489   2594.684538     -0.033689                    
P 14  18717.713541 -15187.874751  11215.470979     67.484890                    
V 14  13862.137057  -2676.633279 -27487.788615     -0.028578                    
P 15  15538.630119   8564.606465 -19939.548013   -246.175124                    
V 15 -21781.461054  12605.562869 -11293.453342     -0.021813                    
P 16  -1949.536801 -24782.496847  -8862.998187   -134.341616                    
V 16   3732.892046 -10780.103679  29926.135888      0.036583                    
P 17 -19159.716888  15321.893706  10205.012087   -168.557478                    
V 17 -12507.468324   2646.768447 -28472.135720     -0.018365                    
P 18  14598.065161 -11798.446719 -18186.882916    397.387564                    
V 18    440.303057  24435.401060 -15397.831551      0.029059                    
P 19 -11947.118141 -11218.857581 -21177.699352   -508.784794                    
V 19  24702.039243  -9150.114255  -8710.831163     -0.012227                    
P 20   2387.947013  26158.425681  -3907.542847    314.737707                    
V 20  -3969.269958   4698.103754  30496.345133      0.037294                    
P 21  20473.055099   -691.497037 -16396.672647   -440.992124                    
V 21  16937.020246  14379.208756  19345.743712     -0.036538                    
P 22   9804.938602 -22004.239458 -10758.082755    344.624567                    
V 22   2569.788993  14374.029439 -26667.662771      0.042190                    
P 23 -21682.126662  -2419.714598  15583.490209   -104.881855                    
V 23  16867.694851  -9754.178539  21724.396327     -0.024942                    
P 24  22258.745936  14617.391612    743.246512    -47.405803                    
V 24   -842.819195   2971.543119 -31477.783698     -0.006404                    
P 25  14893.445790  -1378.142312  21842.600230    -23.998077                    
V 25  -2264.831656  27831.643171   3447.896060     -0.036304                    
P 26   3749.398722 -26217.546971   1952.753029     24.498414                    
V 26   2591.839692   2734.464689  31622.892027      0.049521                    
P 27   -363.160557 -15963.854421 -21218.896184     68.186220                    
V 27  24700.991767 -10707.500178   7747.245434      0.026732                    
P 28 -12287.062762  18507.886431 -13872.121216    436.139212                    
V 28   1315.088507 -18698.438725 -25095.178954      0.027126                    
P 29  24628.267464  -2806.764594   9499.065789    607.165326                    
V 29 -10355.587432   6502.566159  28898.336049      0.023582                    
P 30 -14813.367930   6941.877913 -20948.437720    -66.321118                    
V 30 -19999.304014 -17514.938987   8283.761783      0.044766                    
P 31   2914.353772 -15821.004230  21197.919994    317.376688                    
V 31  21705.646276  15476.500700   8949.898228     -0.010617                    
P 32  -5548.058672 -22709.528708  13088.317904   -164.672373                    
V 32   5034.460662 -15831.291188 -24768.277712      0.095610                    
EOF
